house #,street,zipcode,lat,lon,neighborhood
8109,Boggy Ridge Drive,78748,30.1820175,-97.7950878009157,Dittmar - Cooper
8507,Caspian Drive,78749,30.199637,-97.8410568949153,Woodstone Village
950,Westbank Drive,78746,30.278182,-97.809151,Ledgeway
4208,Steck Avenue,78759,30.377557,-97.75756,Mesa Forest
807,Park Boulevard,78751,30.3015715,-97.7225160489583,Hyde Park
10109,Slaughter Creek Drive,78748,30.164789,-97.821223,Saddlewood Estates
601,Jet Lane,78742,30.235277,-97.677214,NA
4409,Jessamine Hollow,78731,30.348546,-97.7765788232484,Cat Mountain
8800,Daffan Lane,78724,30.309613,-97.61381,NA
4501,Ridge Oak Drive,78731,30.329953,-97.7697967763158,Balcones Park
9600,Great Hills Trail,78759,30.395413,-97.754155,NA
1401,Phillips Court,78733,30.302666,-97.870396,NA
11201,Long Summer Drive,78754,30.3593365,-97.6406345620968,Pioneer Crossing East
504,East Braker Lane,78753,30.3782015,-97.6787475576923,Eubank Acres
5703,Coolbrook Drive,78724,30.304837,-97.6563889318182,Las Cimas
3300,Jones Road,78745,30.229567,-97.811489,Sunset Oaks
5301,East Stassney Lane,78744,30.1923891,-97.7382645433131,McKinney
1021 1/2,East 11th Street,78702,30.269186,-97.729523,Central East Austin
10019,Interstate 35 Frontage Road,78747,30.15444,-97.790536,Southpark Meadows
4611,East Martin Luther King Junior Boulevard,78721,30.2857195,-97.6816040568662,MLK-183
3109,Westlake Drive,78746,30.3162145,-97.7791009637152,Island Way
511,Harris Avenue,78705,30.2954805,-97.7308405,Hancock
9420,Lightwood Loop,78748,30.188392,-97.8386480811037,Pheasant Run
9780,Sprinkle Road,78754,30.3506171077793,-97.6555644242462,Cameron Industrial
6404,Convict Hill Road,78749,30.2268215,-97.8703961714015,Legend Oaks
6113,Charis Court,78735,30.2629115,-97.8425645588812,NA
1400,Ridgecrest Drive,78746,30.317799,-97.8008149791667,Windsong Estates
9005,Wintercreeper Cove,78735,30.283963,-97.878098,NA
11339,Taylor Draper Lane,78759,30.4156035,-97.7541289390496,Angus Valley
3616,Sand Dunes Avenue,78742,30.19891,-97.692925,NA
6301 1/2,I 35 Frontage Road,78744,30.193555,-97.767159,Circle S Ridge
7002,Millrace Drive,78724,30.307853,-97.6553904722222,Las Cimas
2401,South Lakeshore Boulevard,78741,30.242532,-97.720374,Lakeshore
7076,Moores Crossing Boulevard,78617,30.1587771428571,-97.6521385306122,Stoney Ridge
1500,Dittmar Road,78748,30.1872635,-97.8097105,Dittmar Crossing
4051,Ben Garza Lane,78749,30.2215240817142,-97.8335144410709,Williamson
2214,West Braker Lane,78758,30.39342115,-97.7135348312654,Quail Hollow
7509,Escala Drive,78735,30.2706705,-97.8588718958037,NA
5621,Republic of Texas Boulevard,78735,30.2504825,-97.8420464821428,NA
2505,El Greco Cove,78703,30.304514,-97.7749263666667,Tarrytown
2801,Presidential Boulevard,78719,30.209864,-97.664559,NA
5416,Farm-to-Market Road 973,78724,30.265472,-97.606796,Imperial Valley
9722,Great Hills Trail,78759,30.394924,-97.752016,NA
7316,Turnbuoy Drive,78730,30.3448185,-97.8222996946069,NA
4705,Avenue F,78751,30.311256,-97.7248575,North Loop
3401,Oak Springs Drive,78721,30.27365,-97.6962474743108,Rosewood
1515,Capital of Texas Highway,78746,30.27321,-97.8167794921053,Ledgeway
5804,Wier Hills Road,78735,30.252965,-97.881104,NA
5907,Blanco River Pass,78749,30.214827,-97.8700489035714,Legend Oaks
9009,Wintercreeper Cove,78735,30.283668,-97.878448,NA
4300,Eskew Drive,78749,30.20887,-97.8466699571429,Woodstone Village
6606,Hergotz Lane,78742,30.2453715,-97.684482,Johnston Terrace
6214,Northern Dancer Drive,78746,30.319624,-97.8177743316326,Windsong Estates
5423,Fairmont Circle,78745,30.2181915,-97.799561529347,Westgate
3406,Jefferson Street,78731,30.307469,-97.7521121481768,Bryker Woods
9702,Hansford Drive,78753,30.359272,-97.6816657166667,NA
1735,Dittmar Road,78748,30.1855865944278,-97.8133568839442,Dittmar Crossing
5525,City Park Road,78730,30.361548,-97.812951,Long Canyon
3405,River Road,78703,30.306329,-97.7726768362369,Tarrytown
2912,Dillionhill Drive,78745,30.2123165,-97.8173800618391,Sunburst
1309,Dwyce Drive,78757,30.33929,-97.7264594082569,Abercrombie
5507,Colton Road,78719,30.175876,-97.688409,NA
6903,Agave Cove,78750,30.37508,-97.8001830944976,Angel Pass
2626,Gracy Farms Lane,78758,30.4041909661025,-97.7111774555095,North Star
5603,Shoal Creek Boulevard,78757,30.3321595,-97.746757424858,Allandale
820,Blackson Avenue,78752,30.334549,-97.700313,St. Johns
3703,Jefferson Street,78731,30.308846,-97.750692,Bryker Woods
402,Buena Vista Circle,78746,30.2861505,-97.8000636216463,City View
1000,Little Texas Lane,78745,30.198189,-97.767517,Sweetbriar
5909,Northern Dancer Drive,78746,30.318187,-97.813962,Windsong Estates
4000,Bluffridge Circle,78759,30.385074,-97.7471481268116,NA
5600,Sunshine Drive,78756,30.32626665,-97.7306224586645,Broadacres
2502,Galewood Place,78703,30.3015555,-97.7628038995902,Tarrytown
4805,Lyons Road,78702,30.259186,-97.6966268636364,Govalle
9606,Leaning Rock Circle,78730,30.384675,-97.832882,Long Canyon
9312,Sydney Marilyn Lane,78748,30.166813,-97.795915,Southpark Meadows
204,Tumbleweed Trail North,78733,30.326562,-97.874756,Austin Lake Hills
7303,Dan Pass,78744,30.1789395,-97.7665447453704,Meadows Lake
11200,Taylor Draper Lane,78759,30.410016,-97.750932,Angus Valley
7201,RM 2222,78730,30.369185,-97.802453,Angel Pass
9333,Brown Lane,78754,30.3477335,-97.6690176776316,Cameron Industrial
2639,Gwendolyn Lane,78748,30.174659,-97.8374353831169,Tanglewood Forest
11901,River Oaks Trail,78753,30.382805,-97.6650886724599,North Oaks
5409,Wasson Road,78745,30.2057055,-97.7731133029491,East Congress
2928,Norfolk Drive,78745,30.2000815,-97.8266094477612,Cherry Creek
9428,Parkfield Drive,78758,30.368523,-97.706426,North Austin Civic Association
1701,Victoria Drive,78721,30.2828425,-97.6892384941558,MLK
728,Barton Creek Boulevard,78735,30.299692,-97.8474477628866,NA
5408,Southwest Parkway,78735,30.244219,-97.841363,Williamson
2106,Quicksilver Boulevard,78744,30.1777985,-97.7689441914063,Silverstone
6178,Blue Goose Road,78653,30.3491631319237,-97.6284556668341,Harris Branch
1324,Frontier Valley Drive,78741,30.227351,-97.692818,Montopolis
3607,Fall Trail,78731,30.318781,-97.772192,Balcones Park
9807,Brown Lane,78754,30.3543415,-97.6671088104004,Cameron Industrial
9310,Burleson Road,78719,30.167874,-97.679602,NA
6001,Sandshof Drive,78724,30.293278,-97.64802,Colony Park
9508,Presa Abajo Drive,78733,30.3393234961897,-97.8594520336172,Austin Lake Hills
9706,Saugus Lane,78733,30.346038,-97.860227,Austin Lake Hills
3803,Woodcutters Way,78746,30.3272965,-97.7852805192308,Balcones Park
5007,Arax Cove,78731,30.37063,-97.7745734096774,North Cat Mountain
13101,Harold Green Road,78725,30.227657,-97.612128,Garden Valley Village
1711,Holly Street,78702,30.253673,-97.727457,East Cesar Chavez
1104,Penion Drive,78748,30.157462,-97.8239702438272,Saddlewood Estates
3222,Smoky Ridge,78730,30.337553,-97.8195714591912,NA
1611,Nickerson Street,78704,30.2467615,-97.7491915124889,Travis Heights
1799,City Park Road,78730,30.332188,-97.83922,Long Canyon
1623,West 10th Street,78703,30.2796435,-97.7615119748563,Clarksville
6836,Austin Center Boulevard,78731,30.351306,-97.7522317629063,Highland Hills
2101,East 18th Street,78702,30.2787525,-97.7187179946932,Chestnut
6307,Moonglow Drive,78724,30.295522,-97.6449439671827,Park Place
1445,East 51st Street,78723,30.306854027027,-97.7053027297297,Mueller
7483,Cielo Serena Trail,78724,30.2935596727931,-97.6404085769812,Park Place
9610,Westminster Glen Avenue,78730,30.366673,-97.8444720129703,River Place
6100,Grove Boulevard,78741,30.243086,-97.694377,Govalle
8711,Coastal Drive,78749,30.1994575,-97.8470932712766,Woodstone Village
1204,Taylor Street,78702,30.256702,-97.7334306199833,East Cesar Chavez
6319,South Pleasant Valley Road,78744,30.183445,-97.744605,Nuckols Crossing
8844,Chalk Knoll Drive,78735,30.2961335,-97.865975,NA
3400,Toro Canyon Road,78746,30.325872,-97.791895,Bee Cliffs
10500,Brownie Drive,78753,30.3700085,-97.6832174365116,North Lamar
10439,FM 812;FM 973,78719,30.14947,-97.673185,NA
1950,Webberville Road,78721,30.2847345,-97.6729396449354,MLK-183
2100,Polaris Avenue,78757,30.3681105,-97.7243642087766,Wooten
5803,Oakclaire Drive,78735,30.241021,-97.8513756434108,NA
2305,Manana Street,78730,30.328683,-97.82765824,NA
7601,Shelton Road,78725,30.261306,-97.6630925673326,Johnston Terrace
10909,Sea Hero Lane,78748,30.150415,-97.809967,Stablewood at Slaughter Creek
7803,Dee Gabriel Collins Road,78744,30.174792,-97.704663,Martinshore
7211,Circle South Road,78745,30.184814,-97.779054171123,Sweetbriar
4901,Whitethorn Court,78746,30.325498,-97.7885156073781,NA
4004,Balcones Drive,78731,30.3212255,-97.7706025730519,Balcones Park
8026,Tee Drive,78747,30.1579596530612,-97.7486818367347,Thaxton Place
611,East Braker Lane,78753,30.3770895,-97.6779846466877,Eubank Acres
8043,Johnny Morris Road,78724,30.3144276465843,-97.6353366147733,North Point
2310,Bitter Creek Drive,78744,30.183352,-97.7596868701215,Indian Hills
16,Cicero Lane,78746,30.314685,-97.835729,NA
3816,Southway Drive,78704,30.231029,-97.775636,South Lamar
8360,Brodie Lane,78745,30.1999426829268,-97.8391328231707,Woodstone Village
5439,Spicewood Springs Road,78759,30.383586,-97.771603,North Cat Mountain
5104,Beverly Hills Drive,78731,30.3371415,-97.7668534726563,Balcones Park
4805,Emma Browning Avenue,78617,30.181157,-97.665618,NA
3504,Duval Street,78751,30.2980205,-97.73053997,Hyde Park
402,Oak Ridge Drive,78746,30.286155,-97.7973626591615,City View
1416,Webberville Road,78721,30.279981,-97.6817246564898,MLK-183
5700,Cameron Road,78723,30.315542,-97.702291,Ridge Top
NA,Red River Street,78751,30.26963425,-97.7357490996778,Medical District
10500,Thaxton Road,78747,30.125012,-97.743053,Thaxton Place
604,Masterson Pass,78753,30.370947,-97.691482,North Lamar
3457,Lake Austin Boulevard,78703,30.2881785,-97.7842897678618,Westfield
10024,Capital of Texas Highway,78759,30.3915096,-97.73731135,NA
900,Lost Canyon Drive,78746,30.3074785,-97.8008553740809,Windsong Estates
5205,South Pleasant Valley Road,78744,30.195858,-97.744527,Franklin Park
2401,West William Cannon Drive,78745,30.204952,-97.811403,Cherry Meadows
2936,Oestrick Lane,78733,30.346906,-97.848685,Austin Lake Hills
5701,Springdale Road,78723,30.299657,-97.6703727366667,Pecan Springs Springdale
4820,Trail Crest Circle,78735,30.2496895,-97.8296303525074,NA
1504,East 37th Street,78722,30.290867,-97.7156560281385,Cherrywood
5816,Harold Court,78721,30.269746,-97.675717,MLK-183
10514,Wylie Drive,78748,30.1640525,-97.8255385,Saddlewood Estates
2205,Rabb Glen Street,78704,30.250528,-97.7793715194805,Barton Hills
6315,Pathfinder Drive,78759,30.403989,-97.7708207420635,NA
10001,Middle Fiskville Road,78753,30.363174,-97.6821135,Windsor Hills
4016,Pinckney Street,78722,30.292299,-97.7033565166667,Mueller
203,Canyon Rim Drive,78746,30.299111,-97.8390244248649,NA
9018,Tuscany Way,78754,30.335412,-97.6601471264804,Tuscany Business Park
7920,Rockwood Lane,78757,30.3613715,-97.7382442479727,North Shoal Creek
12166,Metric Boulevard,78727,30.406776,-97.6978433854545,Village at Walnut Creek
3600,Agape Lane,78735,30.266114,-97.8372434398165,NA
6104,Marigold Terrace,78741,30.2312975,-97.7025695,Montopolis
6304,East Stassney Lane,78744,30.1965849130972,-97.7249249260608,McKinney
3203,Bruce Drive,78735,30.236256,-97.8073835023474,Flournoy Acres
7107,Grover Avenue,78757,30.3413385,-97.7221029344477,Crestview
12220,Tanglewild Drive,78758,30.4066255,-97.6928687645833,Village at Walnut Creek
7877,Lakewood Drive,78750,30.380163,-97.7936341962366,North Cat Mountain
10106,Dianella Lane,78759,30.409616,-97.774525958,NA
109,Reveille Road,78746,30.282064,-97.806268,Strother Mountain
2306,East Cesar Chavez Street,78702,30.255432,-97.718449109375,Holly
1039,Nile Street,78702,30.268518,-97.7118975560684,Rosewood
1704,Raven Drive,78752,30.3269365,-97.683955184367,Coronado Hills
5301,Fairhill Drive,78745,30.2187805,-97.796444726626,Westgate
11005,Baltus Drive,78758,30.3861425,-97.7026516210938,Quail Hollow
716,Cardinal Lane,78704,30.233184,-97.7677763282299,Galindo
125,Brandon Way,78733,30.3213,-97.859953,Austin Lake Hills
8604,Georgian Drive,78753,30.352546,-97.6999338285714,Georgian Acres
5706,Eagle Cliff,78731,30.353786,-97.793624,Cat Mountain
3620,Ranch Creek Drive,78730,30.34958,-97.841929,NA
NA,San Marcos Street,78767,30.2550804,-97.7380295660232,Rainey Street Historic District
4514,Rimrock Trail,78723,30.2893165,-97.6847843073171,Pecan Springs Springdale
4101,Ramsey Avenue,78756,30.3116445,-97.7460387125,Rosedale
6604,Convict Hill Road,78749,30.2282555,-97.8746818657891,Legend Oaks
12200,Tyson Cove,78758,30.4093615,-97.7010836751008,North Star
4108,Todd Lane,78744,30.210987,-97.738694,Southeast Austin
11340,Platt Lane,78725,30.23738,-97.638169,Garden Valley Village
510,Barton Springs Road,78704,30.258745,-97.749474,Bouldin
806,Theresa Avenue,78703,30.280289,-97.7658300059524,Clarksville
6606,Krollton Drive,78745,30.208071,-97.8112533036099,Whispering Oaks
1619,Woodward Street,78741,30.22007025,-97.7453631513859,St. Edwards
4513,Ruiz Street,78723,30.297726,-97.701753,Mueller
1713,Old East Riverside Drive,78741,30.243717,-97.7304411218487,Lakeshore
4504,Avenue G,78751,30.308187,-97.7264730952381,North Loop
1301,Capital of Texas Highway,78746,30.2795645,-97.8190699421154,Ledgeway
11511,Trinity Hill Drive,78753,30.3793855,-97.6699965070225,North Oaks
1902,Rabb Glen Street,78704,30.2488565,-97.7751175104128,Barton Hills
9100,FM 812,78719,30.1618995,-97.6867316289712,NA
NA,Guadalupe Street,78752,30.32469655,-97.7236985932169,Skyview
8105,Canoga Avenue,78724,30.285477,-97.6374531302521,Loma Vista
7207,Old Bee Cave Road,78735,30.2396478584864,-97.8761941984172,West Oak Hill
4409,Walhill Lane,78759,30.382188,-97.7574310107143,Mesa Forest
4004,Shadow Oak Lane,78746,30.332301,-97.7889127789256,Cat Mountain
5709,McCarty Lane,78749,30.2308336305221,-97.8555900763052,Sunset
8904,Yucca Mountain Road,78759,30.4000765,-97.7825253035191,NA
5534,Blue Bluff Road,78724,30.2701522321099,-97.6166166985277,Imperial Valley
11525,Stonehollow Drive,78758,30.396399,-97.708552,Quail Hollow
2710,Bristol Drive,78723,30.311053,-97.678437,University Hills
1127,Terry Drive,78721,30.268707,-97.679524,Johnston Terrace
4506,Eby Lane,78731,30.3392475,-97.7788973884484,Cat Mountain
10439,FM 812;FM 973,78719,30.14947,-97.673185,NA
9725,Interstate 35 Frontage Road,78744,30.158927,-97.788421,South Bend
5304,Bennett Avenue,78751,30.313352,-97.71233365,Ridge Top
7024,Kings Row,78746,30.300947,-97.8424871046546,NA
8700,Crystal Creek Circle,78746,30.2996265,-97.8595097083719,NA
8001,Delwau Lane,78725,30.263102,-97.658653,MLK-183
8920,Ramirez Lane,78742,30.2457912,-97.6477541,NA
7496,Cielo Serena Trail,78724,30.2936262084026,-97.6401591809564,Park Place
8402,Beaver Brook Lane,78748,30.1781875,-97.7936445871212,Dittmar - Cooper
600,Beardsley Lane,78746,30.305885,-97.851039,NA
300,Edwin Lane,78742,30.249781,-97.658206,NA
5752,North Scout Island Circle,78731,30.353983,-97.793236,Cat Mountain
6600,West William Cannon Drive,78735,30.241273,-97.861133,Legend Oaks
713,Kinney Avenue,78704,30.259296,-97.7634640714286,Zilker
5600,Decker Lane,78724,30.2807365,-97.6360135101351,The Woodlands
1707,Overhill Drive,78721,30.284702,-97.6842312125,MLK
2412,Burleson Court,78741,30.2294545,-97.7348231659341,Parker Lane
5634,Sedona Drive,78759,30.3972745,-97.7655672008291,NA
8507,Bell Mountain Drive,78730,30.374817,-97.818093,Long Canyon
7164,Ridge Oak Road,78749,30.2273715,-97.8669660492916,Legend Oaks
1507,Tall Shadows Drive,78617,30.224123,-97.668115,NA
4402,Elmsgrove Drive,78721,30.2849955,-97.6779772734375,MLK-183
5810,Decker Lane,78724,30.28467,-97.633549,The Woodlands
9605,Crenata Cove,78759,30.4017385,-97.7695975789894,NA
604,Logans Lane,78746,30.305813,-97.7946084340759,Bee Cliffs
2112,West 11th Street,78703,30.2838957,-97.7677005,Westfield
4403,Elohi Drive,78746,30.325311,-97.7807884252336,Balcones Park
9004,Bluegrass Drive,78759,30.394357,-97.769286,NA
5302,Ponciana Drive,78744,30.1998785,-97.7547263928572,Franklin Park
9501,Prince William Road,78730,30.363466,-97.842714,River Place
4610,Tannehill Lane,78721,30.284897,-97.670821,MLK-183
11907,Conann Court,78753,30.3903735,-97.6815058258427,Oak Ridge
1101,Cedar Bend Drive,78758,30.40373,-97.681152,River Oak Lake Estates
4304,Marathon Boulevard,78756,30.311964,-97.7403667532258,Rosedale
1401,Phillips Court,78733,30.302666,-97.870396,NA
7100,Colorado High Avenue,00787,30.206923,-97.701416,NA
3901,Lakeplace Lane,78746,30.3283105,-97.7831760732932,Balcones Park
3221,Silkgrass Bend,78748,30.1851215,-97.8412737246094,Palomino Park
6704,West Courtyard Drive,78730,30.3594335,-97.8036530911215,Angel Pass
7914,Burrell Drive,78757,30.353427,-97.7220015355969,Wooten
5403,Lurlyne Court,78744,30.198473,-97.7324611263158,Southeast Austin
3701,Hawkshead Drive,78727,30.413805,-97.7208900449949,Angus Valley
2705,Crest Avenue,78702,30.2733715,-97.7039024495656,Rosewood
7935,Escala Drive,78735,30.274225,-97.864429032967,NA
10114,Jollyville Road,78759,30.39552385,-97.750325956119,NA
10252,Old Lockhart Highway,78747,30.134763,-97.758314,Perkins Valley
1109,Fieldcrest Drive,78704,30.242951,-97.7666596336207,Galindo
1624,City Park Road,78730,30.3350597978646,-97.841055889041,Long Canyon
2585,Forest Bend Drive,78704,30.2536002341078,-97.7921122736788,Barton Hills
3504,Denwood Drive,78759,30.364923,-97.745904516129,Mesa Forest
8920,Ramirez Lane,78742,30.2457912,-97.6477541,NA
7901,Verbank Vila Drive,78747,30.160692,-97.742882,Thaxton Place
9300,Bell Mountain Drive,78730,30.3806135,-97.8284436676829,Long Canyon
1205,Payne Avenue,78757,30.3343005,-97.7267335129986,Violet Crown Heights
103,Brazos Street,78701,30.263533,-97.742822,Downtown
2417,Hartford Road,78703,30.29355,-97.7581621658681,Old West Austin
5,Stegner Lane,78746,30.323352,-97.825902,NA
2921,Farm-to-Market Road 973,78725,30.24182,-97.619905,Garden Valley Village
2155,Parkway,78703,30.2865630236954,-97.7547099649805,Enfield
11012,Sierra Verde Trail,78759,30.4151715,-97.759624960481,NA
1209,Dusky Thrush Trail,78746,30.2729095,-97.8063557389752,NA
9214,Thaxton Road,78747,30.139915,-97.734098,Thaxton Place
3913,Avenue F,78751,30.3023315,-97.7308957940721,Hyde Park
5601,Little Cypress Lane,78744,30.174821,-97.745506,Nuckols Crossing
1305,Cuernavaca Drive North,78733,30.336589,-97.8649916666667,Austin Lake Hills
8000,Willet Trail,78745,30.197865,-97.8255345645963,Cherry Creek
4407,City Park Road,78730,30.356633,-97.8267552979626,Long Canyon
506,Crystal Creek Drive,78746,30.3154395,-97.8656895896195,Austin Lake Hills
2304,Portofino Ridge Drive,78735,30.287264,-97.8584543666667,NA
10608,Macmora Road,78758,30.3833505,-97.704817374857,Quail Hollow
1819,West 38th Street,78731,30.311099,-97.7533488914373,Oakmont Heights
6407,Culpepper Cove,78730,30.378851,-97.823539,Long Canyon
807,Sheraton Avenue,78745,30.2104225,-97.7626949448925,East Congress
3401,McCall Lane,78744,30.20185,-97.687246,Martinshore
9036,North Lamar Boulevard,78758,30.360306,-97.698868,Fiskville
4003,Mesa Cove,78731,30.352076,-97.770488,Northwest Hills
3505,Alpine Circle,78704,30.2294905,-97.762228997246,Dawson
4817,Old Spicewood Springs Road,78759,30.377412,-97.765214120915,North Cat Mountain
301,East Longspur Boulevard,78753,30.364731,-97.6887291383495,North Lamar
3800,Barton Creek Boulevard,78735,30.2821845,-97.8817823307292,NA
9508,Jollyville Road,78759,30.387574,-97.746364,NA
2356,Cromwell Circle,78741,30.2274066660682,-97.7192529990511,East Riverside - Oltorf
616,Logans Lane,78746,30.307406,-97.795187,Bee Cliffs
15,Rob Roy Road,78746,30.309614,-97.8335322169811,NA
5108,Shaw Lane,78744,30.18329,-97.70841,Martinshore
2203,Thornton Road,78704,30.2457105,-97.770814,Zilker
8425,Asmara Drive,78750,30.392453,-97.806371,Angel Pass
9020,Bluff Springs Road,78747,30.159776,-97.769798,Bluff Springs Estates
201,Edwin Lane,78742,30.2556205,-97.648918832458,NA
2900,Susquehanna Lane,78723,30.317569,-97.66913805791,University Hills
8501,Lava Hill Road,78744,30.155275,-97.700919,NA
6201,Bolm Road,78721,30.25459,-97.6843335806541,Johnston Terrace
2721,Lost Creek Boulevard,78735,30.2736365059194,-97.8449152653499,NA
3703,Turkey Creek Drive,78730,30.351635,-97.839782,NA
7443,Bee Caves Road,78746,30.308211551643,-97.8433618515875,NA
704,Knollwood Drive,78746,30.2953975,-97.8353944904891,NA
1204,West 44th Street,78756,30.313502,-97.7411845632609,Rosedale
2100,Ringtail Ridge,78746,30.2762915,-97.8346824132622,NA
6906,Arroyo Seco,78757,30.341817,-97.728124,Abercrombie
8315 1/2,Steamline Circle,78745,30.188177,-97.812966,Waterloo
2712,Bartons Bluff Lane,78746,30.254877,-97.7956526005886,NA
2411,Campden Drive,78745,30.2062835,-97.8111125,Whispering Oaks
7728,FM 1625,78744,30.1471700357143,-97.6987338214286,NA
1610,Dungan Lane,78754,30.3514315,-97.6723385,Cameron Industrial
4208,Kings Court,78724,30.261767,-97.6307855101149,Imperial Valley
8297,Decker Lane,78724,30.3091540141072,-97.6165049905495,Daffan Gin Park
10810,North Lamar Boulevard,78753,30.3772145,-97.6894386905488,Oak Ridge
610,East 48th Street,78751,30.309717,-97.7201637819549,North Loop
2105,Kemper Cove,78746,30.2763585,-97.8369918065711,NA
1300 1/2,North Interstate Highway 35 Service Road,78701,30.2727305,-97.7329196463927,Medical District
1713,Taylor Gaines Street,78741,30.2401305,-97.7325033026347,Lakeshore
4901,China Garden Drive,78730,30.374818,-97.841514,River Place
5001,Convict Hill Road,78749,30.217078,-97.8534452142857,Sunset
1322 1/2,Airport Commerce Drive,78741,30.223821,-97.685274,Montopolis
7700,Pleasant Meadow Circle,78731,30.363789,-97.7555231929293,Mesa Forest
1001,Ed Bluestein Boulevard,78725,30.252767,-97.676864,Johnston Terrace
701,Bastrop Highway,78742,30.235289,-97.683964,NA
1810,Niles Road,78703,30.287853,-97.76092,Enfield
8930,Galewood Drive,78758,30.3666185,-97.7160493617021,North Austin Civic Association
4906,Canella Drive,78744,30.172803,-97.7560309147727,Silverstone
6111,East Riverside Drive,78741,30.2259750816327,-97.7060946734694,Montopolis
3801,Ranch Creek Drive,78730,30.35589,-97.845884,NA
4104,Speedway,78751,30.3046375,-97.73129400625,Hyde Park
6101,Blarwood Drive,78745,30.2164635,-97.8112621181193,Sunburst
2744,Tom Miller Street,78722,30.2901955,-97.7003372211207,Mueller
3161,Eva Street,78617,30.204343,-97.638712,Hornsby Glen
3208,Duke Road,78724,30.3245335,-97.66353,Walnut Bend
NA,Guadalupe Street,78752,30.32539765,-97.7227068809902,Skyview
718,Yarsa Boulevard,78748,30.1759485,-97.8031779541667,Buckingham Estates
4409,Avenue C,78751,30.309081,-97.7302762777778,Hyde Park
12207,Waters Park Road,78759,30.414427,-97.710004,Tomanet Estates
5714,Terra Vista Drive,78735,30.249654,-97.869912,NA
NA,Sorghum Hill Drive,78753,30.3680502,-97.658674280614,Pioneer Crossing West
5300,Crainway Drive,78724,30.317466,-97.656097,Northridge Park
11103,Platt Lane,78725,30.23087,-97.633266,Garden Valley Village
5800,Zachary Scott Street,78747,30.1387135,-97.768829457619,NA
5108,Shaw Lane,78744,30.18329,-97.70841,Martinshore
5608,West US Highway 290,78735,30.237435,-97.844851,NA
7301,Cayenne Lane,78742,30.2211485,-97.6940595033973,Montopolis
1118,Desirable Drive,78721,30.2638755,-97.6858650631203,Johnston Terrace
NA,Colorado Street,78701,30.27408775,-97.7427713174964,Downtown
8213,Old Manor Road,78724,30.322183,-97.650071,Northridge Park
6372,Capital of Texas Highway,78731,30.3607344012829,-97.7914516998599,North Cat Mountain
5909,Burleson Road,78744,30.206115,-97.721607,McKinney
1120,Elder Circle,78733,30.32445,-97.8477745167464,NA
1100,Fallwell Lane,78617,30.212412,-97.614464,Hornsby Glen
6414,Cottonmouth School Road,78744,30.167895,-97.704192,NA
1210,Bob Harrison Street,78702,30.274397,-97.7272726111111,Swede Hill
5301,East Oltorf Street,78741,30.220098,-97.720896,East Riverside - Oltorf
7900,Loyola Lane,78724,30.295516,-97.635143,Park Place
1940,Webberville Road,78721,30.283905,-97.6731911323529,MLK-183
3201,Lookout Lane,78746,30.32807,-97.8049851802326,NA
2204,Canonero Drive,78746,30.322175,-97.812863,Windsong Estates
9139,Nuckols Crossing Road,78747,30.157335,-97.768711,Perkins Valley
2121,Callingwood Drive,78754,30.373337,-97.6492462244543,Pioneer Crossing West
9383,New Airport Drive,78719,30.2121864594595,-97.6632606756757,NA
6523,Twin Creek Hollow,78750,30.373124,-97.7928775818182,North Cat Mountain
4604,Island Cove,78731,30.33226,-97.77916,Balcones Park
4702,Trail West Drive,78735,30.246491,-97.8300638896026,NA
12030,Samsung Boulevard,78754,30.362026,-97.6398824724082,Pioneer Crossing East
5701,East Martin Luther King Jr Boulevard,78721,30.285527,-97.667511,MLK-183
3103,Sweet Autumn Cove,78735,30.283915,-97.871752,NA
113,Tumbleweed Trail South,78733,30.3248732958872,-97.8726866599486,Austin Lake Hills
1007,Glen Oaks Court,78702,30.268652,-97.7107133238196,Rosewood
7455,Pusch Ridge Loop,78749,30.213984,-97.8453767320872,Sunset
6498,East US 290 Frontage Road,78723,30.321956,-97.689651,Coronado Hills
10200,Giles Lane,78754,30.33887,-97.619359,Harris Branch
2409,Shapard Lane,78617,30.213674,-97.654008,Hornsby Glen
8800,Ramirez Lane,78742,30.245727,-97.653406,NA
6105,Turtle Point Drive,78746,30.275036,-97.84136007,NA
6300,Chambly Cove,78730,30.37918,-97.830807,Long Canyon
3409,Davis Lane,78748,30.193861,-97.84056,Pheasant Run
8304,Sassman Road,78747,30.139539,-97.7187458157895,NA
4901,Winnebago Lane,78744,30.20696,-97.733574,McKinney
7401,Southgate Lane,78744,30.193109,-97.7018420899001,Martinshore
8108,Barton Club Drive,78735,30.291155,-97.8578791542339,NA
3018,Gonzales Street,78702,30.25949,-97.706421,Govalle
9522,Sprinkle Cutoff Road,78754,30.348137,-97.659246,Pioneer Crossing West
8212,Talbot Cove,78746,30.3060645,-97.8587637076037,NA
8910,FM 812,78719,30.162279,-97.688259,NA
300,Edwin Lane,78742,30.249781,-97.658206,NA
2520,Pearce Road,78730,30.331603,-97.827991,NA
1721,Palma Plaza,78703,30.2833235,-97.7626886188859,Enfield
7213,Dee Street,78745,30.193468,-97.79499,Hillside Oaks
5506,Salem Walk Drive,78745,30.209896,-97.7833871336281,South Manchaca
9405,Bell Mountain Drive,78730,30.380562,-97.831433,Long Canyon
2307,Kinney Road,78704,30.2456545,-97.7731757627896,Zilker
9500,Decker Lane,78724,30.321419,-97.610095,Daffan Gin Park
9310,Burleson Road,78719,30.167874,-97.679602,NA
4722,Palisade Drive,78731,30.340916,-97.7834450211612,Cat Mountain
6506,Auburnhill Street,78723,30.3138115,-97.6772363080357,University Hills
2300,Rosewood Avenue,78702,30.270682,-97.714198,Rosewood
11317,Cameron Road,78754,30.357749,-97.632432,Pioneer Crossing East
7828,Escala Drive,78735,30.269644,-97.8664079603175,NA
6,Lovegrass Lane,78745,30.2242479015692,-97.8212553026731,NA
5016,Bee Caves Road,78746,30.289745,-97.818734,Ledgeway
10385,Old Lockhart Highway,78747,30.135302,-97.750891,Perkins Valley
3105,Pleasant Run Place,78703,30.3091925,-97.7659352082664,Tarrytown
10115,South Mary Moore Searight Drive,78748,30.1728327640091,-97.8078230683205,Searight Village
3909,Warehouse Row,78704,30.2221295,-97.7568680124594,St. Edwards
7101,Malibu Cove,78730,30.342328,-97.818893799041,NA
10385,Old Lockhart Highway,78747,30.135302,-97.750891,Perkins Valley
5409,Vine Hill Drive,78744,30.173483,-97.748701,Nuckols Crossing
3500,Comsouth Drive,00787,30.210845,-97.7212192933124,McKinney
10592,Bilbrook Place,78748,30.158896,-97.810706714852,Westwood Heights
2009,Loop 1,78746,30.259497,-97.795116,Barton Hills
2815,Fruth Street,78705,30.2945955,-97.7417850318207,Central Austin
605,East 56th Street,78751,30.31862235,-97.7150680179258,Ridge Top
2419,Trail of the Madrones,78746,30.3162845644196,-97.7967899789336,Bee Cliffs
7013,Gentle Oak Drive,78749,30.229216,-97.8671331076923,Legend Oaks
11205,Real Quiet Drive,78748,30.14827,-97.811098032924,Stablewood at Slaughter Creek
9607,Brown Lane,78754,30.352186,-97.667812,Cameron Industrial
9101,Curlew Drive,78748,30.1861805,-97.8302844416996,Pheasant Run
8313,Nicola Trail,78745,30.194542,-97.828526,Cherry Creek
2102,North Oak Canyon Road,78746,30.313466,-97.7983057720588,Bee Cliffs
2108,Deleon Court,78733,30.341503,-97.8575140875,Austin Lake Hills
8624,Acuarela Court,78735,30.271344,-97.881218,NA
3208,South 5th Street,78704,30.2347985,-97.7692583823529,Galindo
8475,Capital of Texas Highway,78759,30.3856358872418,-97.7654895556469,North Cat Mountain
3716,Bronco Bend Loop,78742,30.197052,-97.694073536855,NA
7905,Hergotz Lane,78742,30.2405925044248,-97.665952300885,Johnston Terrace
3704,Harpers Ferry Lane,78749,30.208863,-97.8372098212121,West Branch
6107,Shadow Bend,78745,30.2008885,-97.7811768208841,Sweetbriar
3218,Clearview Drive,78703,30.296318,-97.7747159823197,The Doke
500,Double Fork Road,78746,30.293635,-97.80741,Ledgeway
1158,Lott Avenue,78721,30.274682,-97.6826239253731,MLK-183
