house #,street,zipcode,lat,lon,neighborhood
4704,Carter Lane,78744,30.205996,-97.7352885531609,Southeast Austin
9302,Creeks Edge Circle,78733,30.295867,-97.8844720587302,NA
5350,West US Highway 290,TX 78735,30.2372955,-97.8375895227211,Sunset Oaks
1404,Green Pastures Cove,78725,30.222968,-97.6283230819783,Garden Valley Village
7308,Carver Avenue,78752,30.3325235,-97.698402548495,St. Johns
1203,Cometa Street,78721,30.278904,-97.68943,MLK
3955,Westlake Drive,78731,30.3289255,-97.7807829791667,Balcones Park
9909,Thaxton Road,78747,30.130941,-97.735565,Thaxton Place
1200,Capital of Texas Highway,78746,30.281526,-97.823011,Ledgeway
3242,Lockhart Highway,78744,30.20248564,-97.68332272,NA
3701,Oak Springs Drive,78721,30.2734895,-97.6929105,Rosewood
105,West 45th Street,78751,30.308655,-97.728735,The Triangle
6002,Spancreek Circle,78731,30.3459425,-97.7635795238987,Highland Hills
8214,Nairn Drive,78749,30.2100925,-97.8571280807692,Maple Run
5601,Blue Goose Road,78754,30.345631,-97.630743,Harris Branch
647,River Hills Road,78733,30.3223126348154,-97.8523430868575,Austin Lake Hills
5471,Levander Loop,78702,30.2501973975879,-97.6947493667894,Govalle
4032,Vivas Lane,78735,30.2591215,-97.8463620729167,NA
6603,Mesa Drive,78759,30.355008,-97.7688671136364,Northwest Hills
2500,Bee Caves Road,78746,30.268711,-97.784363,Timberline Ridge
6007,Cheremoya Drive,78724,30.2909637399092,-97.6439329103178,Meadows at Trinity Crossing
1902,Webberville Road,78721,30.28292,-97.6762744190882,MLK-183
8277,Dee Gabriel Collins Road,78744,30.1670795483004,-97.69764159709,Martinshore
1906,Ullrich Avenue,78756,30.333463,-97.7385683316326,Brentwood
4032,Vivas Lane,78735,30.2591215,-97.8463620729167,NA
4804,Precipice Cove,78731,30.3416515,-97.7854097930036,Cat Mountain
11509,June Drive,78753,30.375255,-97.662125010661,Four Seasons
9608,Decker Lake Road,78724,30.285994,-97.619117,Imperial Valley
5607,Burrough Cove,78745,30.220669,-97.807248,Flournoy Acres
2313,Teri Road,78744,30.199377,-97.7482705669291,Franklin Park
10207,Bilbrook Place,78748,30.1649165,-97.8174583956244,Westwood Heights
6815,Shelton Road,78725,30.262039,-97.67082,Johnston Terrace
9332,Hog Eye Road,78724,30.282396,-97.621721,The Woodlands
6100,Wing Feather Drive,78744,30.187452,-97.7487843308581,Nuckols Crossing
3951,Westlake Drive,78746,30.328266,-97.781859,Balcones Park
3400,Hancock Drive,78731,30.3334385,-97.7606405114459,Balcones Park
1109,Stobaugh Street,78757,30.3481135,-97.7178969552626,Crestview
1214,Harrison Lane,78742,30.226141,-97.673366,NA
7301,Onion Creek Drive,78744,30.1693445,-97.7459381005747,Silverstone
1619,Constantino Circle,78745,30.197778,-97.804929,Cherry Meadows
603,West 17th Street,78701,30.280263,-97.7449437824934,The Drag
1711,West 32nd Street,78703,30.30439,-97.7552409973967,Bryker Woods
4414,Russell Drive,78745,30.227394,-97.7871229478022,South Manchaca
8218,Chalk Knoll Drive,78735,30.286469,-97.8625499153846,NA
2116,Rountree Drive,78722,30.284602,-97.7076321111111,Chestnut
1220,Camino La Costa,78752,30.3251445,-97.6946577842999,St. Johns
900,Redbud Trail,78746,30.300042,-97.809299,Ledgeway
7912,Dee Gabriel Collins Road,78744,30.174193,-97.702023,Martinshore
2670,Piping Rock Trail,78748,30.1769705,-97.8321960075758,Castlewood Forest
5016,Interlachen Lane,78747,30.1400405,-97.7770093015677,Crossings at Onion Creek
1001,Ed Bluestein Boulevard,78725,30.252767,-97.676864,Johnston Terrace
4105,Avenue B,78751,30.305723,-97.7333419036545,Hyde Park
4301,Old Bull Creek Road,78731,30.339675,-97.774542,Cat Mountain
7500,Valburn Drive,78731,30.371212,-97.7754615891124,North Cat Mountain
4911,East Yager Lane,78653,30.3635315,-97.6298539415996,Pioneer Crossing East
4920,Flaming Oak Cove,78749,30.2186585,-97.8521791018519,Sunset
7101,Bending Oak Road,78749,30.2294635,-97.8689075214286,Legend Oaks
7405,Ferndale Circle,78745,30.187408,-97.7884668784787,Cooper Lane
5511,Colton Road,78719,30.172746,-97.682916,NA
4017,Victory Drive,78704,30.233509,-97.788729,South Lamar
2009,Thrasher Lane,78741,30.222629,-97.7000915063131,Montopolis
2008,Yellow Jacket Lane,78741,30.220567,-97.6959186666667,Montopolis
3301,Jones Road,78745,30.229856,-97.812784,Sunset Oaks
6911,Bayridge Terrace,78759,30.415871,-97.7716605298963,NA
5101,East 51st Street,78723,30.293215,-97.672927,Pecan Springs Springdale
9310,Burleson Road,78719,30.167874,-97.679602,NA
4401,Lareina Drive,78745,30.219715,-97.7704909047619,West Congress
935,East 50th Street,78751,30.309995,-97.7135179794166,North Loop
700,Canyon Rim Drive,78746,30.295252,-97.849731,NA
4307,Walhill Lane,78759,30.3812925,-97.7564565320513,Mesa Forest
10515,River Plantation Drive,78747,30.1427995,-97.7804365274725,Crossings at Onion Creek
7909,Goldenrod Cove,78750,30.388737,-97.7984972513935,Angel Pass
3732,McKinney Falls Parkway,78744,30.1984892798227,-97.6905564264617,Martinshore
4700,Amarra Drive,78735,30.268455,-97.882717,NA
4501,Dudmar Drive,78735,30.2355515,-97.8048971934046,Flournoy Acres
6,Rocky River Cove,78746,30.288501,-97.8008868178046,City View
12313,Cedar Bend Drive,78758,30.408176,-97.690309,Village at Walnut Creek
6820,Marbry's Ridge Cove,78731,30.3622105,-97.7751250150806,Marbry's Ridge
107,Oertli Lane,78753,30.3495095,-97.7007940775376,Georgian Acres
5106,Shaw Lane,78744,30.183512,-97.70812,Martinshore
1710,Forestglade Drive,78745,30.224022,-97.7888335309385,South Manchaca
802,Northwestern Avenue,78702,30.264685,-97.7134705026355,Foster Heights
9759,US Highway 290,78724,30.33415775,-97.6100615833333,Daffan Gin Park
9940,Decker Lane,78724,30.323847,-97.608695,Daffan Gin Park
1901,Farm-to-Market Road 973,78725,30.218186,-97.636272,Hornsby Glen
7625,Oak Shores Drive,78730,30.342547,-97.827025,NA
NA,AMD internal road 1,78735,30.25069975,-97.8610131862154,NA
408,East Wonsley Drive,78753,30.345124,-97.7007535766178,Georgian Acres
9505,Night Star Drive,78617,30.2225175,-97.6679507102273,NA
3909,I 35 Frontage Road,78741,30.218765,-97.749167,St. Edwards
3525,Far West Boulevard,78731,30.3525715,-97.7532587356816,Highland Hills
1781,Spyglass Drive,78746,30.2583805,-97.791633476709,Barton Hills
9707,Gray Boulevard,78758,30.3763365,-97.7137875,North Austin Civic Association
941,Roadrunner Road,78746,30.30469,-97.807306,Windsong Estates
5102,Par Cove,78744,30.1963735,-97.7439396612903,Franklin Park
4102,Flagstaff Drive,78759,30.406619,-97.7327356743697,Angus Valley
1709,Manana Street,78730,30.325417,-97.8331200043557,NA
4831,Rollingwood Drive,78746,30.2745465,-97.78928194375,Timberline Ridge
NA,NA,78744,30.1927469,-97.7153097685779,Martinshore
4300,Nixon Lane,78725,30.272089,-97.652415,Meadows at Trinity Crossing
6000,Lonesome Valley Trail,78731,30.346426,-97.7735946722581,Cat Mountain
7170,Las Ventanas Drive,78731,30.3653335,-97.776424,Marbry's Ridge
NA,Guadalupe Street,78752,30.32382015,-97.7231317070437,Skyview
8914,Hergotz Lane,78742,30.238173,-97.658436,Johnston Terrace
6002,Ponca Street,78741,30.239631,-97.6992282925225,Montopolis
1120,Denfield Street,78721,30.271695,-97.6901602198795,MLK
4301,Old Bull Creek Road,78731,30.339675,-97.774542,Cat Mountain
7719,Elderberry Drive,78745,30.183954,-97.7905248244681,Beacon Ridge
8827,Nuckols Crossing Road,78744,30.1586430984819,-97.7607791809873,Perkins Valley
2937,Ellon Road,78617,30.2071045,-97.6402584164597,Hornsby Glen
7156,Las Ventanas Drive,78731,30.3650275,-97.7758308303821,Marbry's Ridge
1801,Westlake Drive,78746,30.302315,-97.7945154568965,Lakeview Gardens
2610,Hillview Road,78703,30.302426,-97.7681750280299,Tarrytown
6800,Burleson Road,78741,30.201903,-97.7044580634571,Martinshore
5104,Calhoun Canyon Loop,78735,30.2470745,-97.8356067769246,NA
2411,Kinney Road,78704,30.2440745,-97.774303180203,Zilker
5905,Walnut Hills Drive,78723,30.305528,-97.6766495577986,Pecan Springs Springdale
1712,Princeton Avenue,78757,30.350692,-97.7254025416667,Crestview
10620,Bluff Bend Drive,78753,30.368949,-97.676201,Windsor Hills
10317,Old Manchaca Road,78748,30.17047,-97.830362,Ford Oaks
6201,Middle Fiskville Road,78752,30.324122,-97.709502,Ridge Top
1141,Richardine Avenue,78721,30.270988,-97.6854905162407,Johnston Terrace
7800,Escala Drive,78735,30.268572,-97.8656236111111,NA
2008,Justin Lane,78757,30.344952,-97.735078,Abercrombie
4005,Banister Lane,78745,30.229529,-97.777745381165,South Lamar
3106,Rivercrest Drive,78746,30.3347275,-97.8190715474138,NA
2024,Dry Season Trail,78754,30.373122,-97.6502101161286,Pioneer Crossing West
9700,Sophora Cove,78759,30.404378,-97.7712529417476,NA
1314,Patterson Road,78733,30.3067385,-97.8804557009915,NA
200,East Riverside Drive,78704,30.2552939,-97.7440490438931,Rainey Street Historic District
3605,Vara Drive,78754,30.3319295,-97.6525529620253,Walnut Place
909,West 22nd Street,78705,30.285242,-97.7474545982728,The Drag
4100,Westbank Drive,78746,30.2763437,-97.8140818393906,NA
11006,Metric Boulevard,78727,30.389533,-97.7106639349827,Quail Hollow
11340,Platt Lane,78725,30.23738,-97.638169,Garden Valley Village
7503,Delwau Lane,78725,30.262662,-97.6656830379206,MLK-183
760,Bastrop Highway,78742,30.2322605,-97.6849352828743,NA
3321,Bee Caves Road,78746,30.274487,-97.801944,Ledgeway
1605,Creek Hollow,78754,30.36502,-97.664305,Woodcliff
2005,Robinhood Trail,78703,30.2985775,-97.7771420502401,The Doke
7901,Eudora Lane,78747,30.159359,-97.73999607,Thaxton Place
2112,Courtney Street,78745,30.200714,-97.8105053272727,Whispering Oaks
8611,Daffan Lane,78724,30.309986375,-97.6150085625,NA
1701,Toomey Road,78704,30.264437,-97.7615415502449,Seaholm
11700,Metric Boulevard,78758,30.3964235,-97.7067935,Quail Hollow
1509,Kenwood Avenue,78704,30.2446815,-97.7403407057522,Travis Heights
7810,Burleson Road,78744,30.18922,-97.694936,Martinshore
3600,Agape Lane,78735,30.266114,-97.8372434398165,NA
1801,Miami Drive,78733,30.342604,-97.8664194507858,Austin Lake Hills
4709,Nixon Lane,78725,30.2752925,-97.6475200144628,Meadows at Trinity Crossing
6832,Farm-to-Market Road 973,78724,30.282195,-97.59599,Decker Lake Estates
1370,Patterson Road,78733,30.303882,-97.878565,NA
2508,Schulle Avenue,78703,30.3026205,-97.7746089844842,Tarrytown
4812,Carsonhill Drive,78723,30.290082,-97.6754660806452,Pecan Springs Springdale
788,Oakdale Drive,78745,30.21832,-97.819766,Sunburst
4209,Smith School Road,78744,30.195808,-97.7132315481016,Martinshore
3312,Bengston Street,78702,30.27047,-97.6977529479675,Rosewood
11104,Grapevine Lane,78759,30.416401,-97.7615342659134,NA
6315,Old Spicewood Springs Road,78750,30.391277,-97.778557,North Cat Mountain
7702,Great Northern Boulevard,78757,30.3585336666667,-97.7443843333333,North Shoal Creek
8004,Two Coves Drive,78730,30.366635,-97.815705,Long Canyon
5204,East Ben White Boulevard,78741,30.214349,-97.724804,Parker Lane
4511,Cliffstone Cove,78735,30.244745,-97.8226798935549,Williamson
11714,Spotted Horse Drive,78759,30.4118475,-97.7329793567722,Angus Valley
4310,Farm-to-Market Road 973,78725,30.252855,-97.614661,Garden Valley Village
6084,Bee Caves Road,78746,30.2962192162048,-97.829701567045,Ledgeway
5208,North Scout Island Circle,78731,30.3538005,-97.7857233333333,Cat Mountain
1511,Harbor View Drive,78746,30.297999,-97.79500059375,Lakeview Gardens
2011,E M Franklin Avenue,78723,30.285899,-97.6967327211817,MLK
1800,Barton Creek Boulevard,78735,30.2946975,-97.8630308113971,NA
701,Woodward Street,78704-7205,30.225402,-97.7520669750425,St. Edwards
5113,Pepper Lane,78744,30.2002015,-97.7526812956731,Franklin Park
4221,South 1st Street,78745,30.223293,-97.771249,West Congress
9229,Waterford Centre Boulevard,78758-7008,30.3766715,-97.7277110860376,North Shoal Creek
7800,RM 2222,78750,30.376704,-97.804691,Angel Pass
1007,Kramer Lane,78758,30.3812025,-97.6917670268109,Quail Hollow
9301,Independence Loop,78748,30.1753355,-97.8119797215116,Westwood Heights
10001,Thaxton Road,78747,30.13014,-97.736541,Thaxton Place
7905,Burleson Road,78744,30.187545,-97.694164,Martinshore
8006,South 1st Street,78745:78748,30.1824825,-97.7941688089161,Dittmar - Cooper
1212,West 38th Street,78756,30.306561,-97.745472,Rosedale
7408,Cedar Edge Drive,00787,30.1963225,-97.6973113765791,NA
2111,Keepsake Drive,78745,30.18807,-97.816882,Grand Oaks
1600,Payton Gin Road,78758-7013,30.3644585,-97.713934854347,North Austin Civic Association
4211,Plantain Cove,78730,30.358413,-97.836048,NA
4800,Toreador Drive,78746,30.319837,-97.792084,Island Way
1825,Wooten Park Drive,78757,30.3539975,-97.7250263897059,Crestview
739,Barton Creek Boulevard,78746,30.3004716834539,-97.8461562075665,NA
8201,Sassman Road,78747,30.137026,-97.719616,NA
6000,Tributary Ridge Drive,78759,30.4118595,-97.7606949844737,NA
8543,Nuckols Crossing Road,78744,30.1584257411665,-97.7550356322256,Thaxton Place
11,Hull Circle,78746,30.297745,-97.7923322137129,Lakeview Gardens
8006,Chervil Drive,78759,30.36499,-97.748291648293,Mesa Forest
2604,Pearce Road,78730,30.3314605,-97.8263110131579,NA
2785,Capital of Texas Highway,78746,30.3267419296855,-97.8119386263465,NA
11709,Pearce Lane,78617,30.174567,-97.63594,Meadows at Berdoll
8070,Thaxton Road,78747,30.155713,-97.7380544789916,Thaxton Place
904,Bastrop Highway,78741,30.227535,-97.68563,NA
1618,Willow Street,78702,30.257365,-97.727407,Holly
3801,Westlake Drive,78731,30.325363,-97.7793101561234,Balcones Park
5510,I 35 Frontage Road,78745:78748,30.2006735,-97.764241266035,East Congress
2300,Lockhart Highway,78744,30.211796,-97.683509,NA
8334,Cross Park Drive,78753:78754,30.3356485,-97.6754664436813,Parker Acres
13181,Three Island Road,78617,30.2092807319436,-97.6129972717968,NA
9500,Manchaca Road,78748,30.1776065,-97.8219778374613,Davis Hill Estates
NA,Grove Boulevard,78741,30.22247085,-97.7096630120886,Montopolis
6220,Banning Lane,78724,30.288958,-97.633036,Loma Vista
10001,Burleson Road,78617,30.173044,-97.6720233710526,NA
5107,Turnabout Lane,78731,30.327712,-97.7474877208029,Allandale
1215,Yaupon Valley Road,78746,30.296961,-97.818131,Ledgeway
1107,Castile Road,78733,30.3365285,-97.869166,Austin Lake Hills
5077,Emma Browning Avenue,78719,30.1801958442673,-97.6666532259202,NA
6709,Windrift Way,78745,30.200964,-97.797025,Carrell Oaks
1925 1/2,Wickshire Lane,78741,30.223007,-97.73906,Parker Lane
98,Wallis Drive,78746,30.278567,-97.7827024877279,Timberline Ridge
2785,East 7th Street,78702,30.259629,-97.710231,Holly
8615,Rockwood Lane,78757,30.368777,-97.72956,North Shoal Creek
917,Jet Lane,78742,30.231315,-97.681689,NA
4430,Crestway Drive,78731,30.328283,-97.7713365920921,Balcones Park
8709,Escabosa Drive,78748,30.18638,-97.819881278507,Davis Hill Estates
7135,East Ben White Boulevard,78742,30.215116,-97.69879,Montopolis
6901,Alleyton Drive,78725,30.256401,-97.670179,Johnston Terrace
400,Deep Eddy Avenue,78703,30.277591,-97.773285,Bluffington
6902,Greenshores Drive,78730,30.34286,-97.814311,NA
1905,Piedmont Avenue,78757,30.3459275,-97.7314626458333,Crestview
9001,Tuscany Way,78754,30.3345635,-97.6566797979232,Tuscany Business Park
2303,Fuente Cove,78745,30.1994585,-97.8135005558419,Whispering Oaks
8400,Delwau Lane,78725,30.265681,-97.656035,MLK-183
7308,Farm-to-Market Road 973,78724,30.286179,-97.593319,Decker Lake Estates
2330,South Lamar Boulevard,78704,30.247504,-97.776367,Zilker
6928,Johnny Morris Road,78724,30.3029535308449,-97.6465468506256,North Point
5106,Bluffside Drive,78759,30.390512,-97.7605590429825,NA
7301,Bridge Point Parkway,78730,30.359031,-97.811311,Long Canyon
2712,West William Cannon Drive,78745,30.2081405,-97.8168090371622,Cherry Meadows
9210,Creeks Edge Circle,78733,30.2954505,-97.8841099926527,NA
11859,Harold Green Road,78725,30.2310369784199,-97.6245910964816,Garden Valley Village
9940,Decker Lane,78724,30.323847,-97.608695,Daffan Gin Park
3535,Lockhart Highway,78744,30.1973974941404,-97.6840194387734,NA
4500,East 51st Street,78723,30.294237,-97.678215,Pecan Springs Springdale
11093,Platt Lane,78725,30.2312055364898,-97.6338322512738,Garden Valley Village
7815,Moonflower Drive,78750,30.3899105,-97.802599975,Angel Pass
3201,Westlake Drive,78746,30.317788,-97.777964475,Island Way
4470,Shaw Lane,78744,30.1891525833333,-97.7031145,Martinshore
7605,Berrycone Cove,78750,30.3825705,-97.7996853571429,Angel Pass
9606,Glenlake Drive,78730,30.359328,-97.849023,River Place
805,Las Cimas Parkway,78746,30.2897395,-97.8297654201733,Ledgeway
306,Terrace Drive,78704,30.243034,-97.7490544713464,South Congress
904,Taulbee Lane,78757,30.3459845,-97.7156165255474,Crestview
2313,National Park,78747,30.1529995,-97.7855681826972,Crossings at Onion Creek
3615,Oak Springs Drive,78721,30.2734645,-97.6935146706731,Rosewood
6334,Orleans Drive,78744,30.1691336444543,-97.739876741628,Nuckols Crossing
112,East 11th Street,78701,30.27266,-97.740254,Downtown
3402,Mount Bonnell Road,78731,30.315519,-97.7748095369359,Balcones Park
411,Thompson Lane,78742,30.240627,-97.681415,Johnston Terrace
8109,Altoga Drive,78724,30.323985,-97.6534822936405,Walnut Bend
3309,Hackamore Drive,78748,30.1784835,-97.8478115594267,Palomino Park
2101,Demona Drive,78733,30.3410725,-97.8586419422222,Austin Lake Hills
8411,Greenflint Lane,78759,30.3772755,-97.7545039766097,Mesa Forest
2700,Island Ledge Cove,78746,30.3112445,-97.7824801288817,Island Way
8008,Cobblestone,78735,30.2551535,-97.883368,West Oak Hill
2413,East 9th Street,78702,30.2645345,-97.7147848511434,Blackshear-Prospect Hill
5016,RM 2222,78731,30.3465126153058,-97.7846854622178,Cat Mountain
4300,Waterford Place,78731,30.334788,-97.7747249264706,Balcones Park
4500,Dusik Lane,78746,30.2726415,-97.8223060518561,NA
1435,Circle Ridge Drive,78746,30.3046055,-97.8158036519725,Ledgeway
10800,Pearce Lane,78617,30.180949,-97.64687,Stoney Ridge North
18,Cicero Lane,78746,30.3149475,-97.8370467567878,NA
2602,Rollingwood Drive,78746,30.2708715,-97.7835082605325,Timberline Ridge
8501,Cross Park Drive,78754,30.339944,-97.675931,Parker Acres
4822,East Cesar Chavez Street,78702,30.252141,-97.7020219402457,Govalle
5305,Paradox Cove,78731,30.349075,-97.78718,Cat Mountain
790,Oakdale Drive,78745,30.218767,-97.818968,Sunburst
9013,Tuscany Way,78754,30.3379115,-97.6593468617781,Tuscany Business Park
11203,Brushy Glen Drive,78754,30.370557,-97.6660669673913,Woodcliff
8412,Bell Mountain Drive,78730,30.375657,-97.8167591215995,Long Canyon
5002,Smokey Valley,78731,30.363068,-97.7806525130435,Village at Meadow Mountain
501,Ramble Lane,78745,30.2103615,-97.777977,West Congress
6808,Mesa Drive,78759,30.3576505,-97.7681918,Northwest Hills
7603,Rustling Circle,78731,30.365886,-97.7644667635242,Mesa Forest
2100,Ford Street,78704,30.255007,-97.7748594296699,Zilker
2213,Wimberly Lane,78735,30.2940715,-97.8712620694444,NA
5403,Encinas Rojas Street,78746,30.315637,-97.803043,Windsong Estates
8409,Bell Mountain Drive,78730,30.374812,-97.8149694983957,Long Canyon
5601,Katydid Lane,78744,30.167082,-97.7515867294256,Thaxton Place
2392,Cecil Drive,78744,30.165184,-97.77459,Perkins Valley
7610,Burnet Road,78757,30.352882,-97.733373,North Shoal Creek
6800,Canon Wren Drive,78746,30.3022685,-97.8355341264467,NA
4600,Dusik Lane,78746,30.273513,-97.82359,NA
1615,Rutherford Lane,78753:78754,30.335741,-97.6822526735537,Berkley Square - Headway
2706,Gettysburg Drive,78745,30.1958495,-97.8237930386338,Cherry Creek
3704,Steck Avenue,78759,30.37069,-97.746398,Mesa Forest
1518,Ullrich Avenue,78756,30.3315175,-97.7341612463054,Brentwood
9607,Sprinkle Cutoff Road,78754,30.348595,-97.6553444990872,Pioneer Crossing West
2704,Oakhurst Avenue,78703,30.2978475,-97.7523877375776,Old West Austin
4601,Federal Circle,78744,30.199663,-97.7422449790076,Southeast Austin
2401,Camino Alto,78746,30.313746,-97.7918328523954,Bee Cliffs
1427,Circle Ridge Drive,78746,30.30424,-97.8172135734649,Ledgeway
803,Crystal Creek Drive,78746,30.308389,-97.865497,Austin Lake Hills
3220,Clearview Drive,78703,30.2963985,-97.7749534938889,The Doke
7020,Outfitter Drive,00787,30.1994935,-97.7008873184962,NA
11408,Platt Lane,78725,30.238045,-97.631469,Garden Valley Village
1301,Westlake Drive,78746,30.29443,-97.79461,Lakeview Gardens
240,West 55Â½ Street,78751,30.3218026767677,-97.721618959596,North Loop
10111,Rocking Horse Road,78748,30.1786125,-97.8459883101936,Palomino Park
8022,Thaxton Road,78747,30.1574125,-97.7420599772727,Thaxton Place
1506,Patterson Road,78733,30.3013795,-97.872084484375,NA
611,West Ben White Boulevard,78745,30.225733,-97.770859,Galindo
6508,Epping Forest Cove,78730,30.381822,-97.824994,Long Canyon
7211,Bucknell Drive,78723,30.321516,-97.672294,University Hills
9600,Great Hills Trail,78759,30.395413,-97.754155,NA
2607,West Braker Lane,78758,30.3903283,-97.7205509770115,Quail Hollow
6408,Hergotz Lane,78742,30.245194,-97.686861,Johnston Terrace
2604,Pecos Street,78703,30.303708,-97.7707317415254,Tarrytown
8206,Cross Park Drive,78753:78754,30.3312615,-97.6692424247679,Walnut Bend
10603,Etta Lane,78748,30.160529,-97.817901,Saddlewood Estates
7514,Saint Cecelia Street,78757,30.351362,-97.7326208818583,Crestview
201,Edwin Lane,78742,30.2556205,-97.648918832458,NA
6100,Spicewood Springs Road,78759,30.391009,-97.775952,NA
1759,Crozier Lane,78617,30.2225418053691,-97.6635236845638,NA
6704,Capital of Texas Highway,78750,30.368055,-97.790448,North Cat Mountain
16,Sugar Creek Drive,78746,30.280498,-97.792142,NA
3201,Whiteway Drive,78757,30.3563515,-97.7430028296296,North Shoal Creek
8006,Cameron Road,78753,30.336092,-97.684473,Berkley Square - Headway
6900,Fence Line Drive,78749,30.2231975,-97.8490634042553,Sunset
8510,Leaning Rock Circle,78730,30.3768201992139,-97.8159110484932,Long Canyon
6699,US 290;TX 71,78735,30.233980980681,-97.8674286051032,Legend Oaks
3674,Ranch Creek Drive,78730,30.354425,-97.847953,NA
3413,Galesburg Drive,78745,30.2055015,-97.8342588495935,Southampton Hills
2900,Farm-to-Market Road 973,78725,30.241648,-97.6222,Garden Valley Village
3632,Ranch Creek Drive,78730,30.350044,-97.8437318636774,NA
1908,Rogge Lane,78723,30.3073525,-97.6930367277778,Pecan Springs Springdale
2501,East Saint Elmo Road,78744,30.20663,-97.742443,Southeast Austin
5703,Tracy Lynn Lane,78721,30.2555365,-97.6882236776355,Johnston Terrace
1507,East 2nd Street,78702,30.259412,-97.728887,East Cesar Chavez
7601,Shelton Road,78725,30.261306,-97.6630925673326,Johnston Terrace
5509,Mount Bonnell Road,78731,30.339405,-97.777929,Balcones Park
4624,Marlo Drive,78723,30.291227,-97.685002,Pecan Springs Springdale
6101,Harold Court,78721,30.267559,-97.6743268477475,MLK-183
1506,Arcadia Avenue,78757,30.336114,-97.7315994951274,Violet Crown Heights
830,Bastrop Highway,78741,30.229328,-97.68624,NA
1104,Kinney Avenue,78704,30.2567805,-97.7657378995727,Zilker
8801,Francia Trail,78748,30.1736065,-97.79307,Park Ridge
11005,Long Winter Drive,78754,30.3704275,-97.6528820310284,Pioneer Crossing West
1109 1/2,South Pleasant Valley Road,78741,30.241708,-97.71658,Lakeshore
3200,Breeze Terrace,78722,30.2875655,-97.718070631579,Cherrywood
1908,Kinney Avenue,78704,30.2509115,-97.7693972732558,Zilker
910,Ledgeway Street West,78746,30.2972789017908,-97.8101338593448,Ledgeway
6295,Sneed Cove,78744,30.1930166965436,-97.764150699006,Indian Hills
6821,Alleyton Drive,78725,30.25669,-97.6702,Johnston Terrace
5804,Charles Schreiner Trail,78749,30.225443,-97.8629975091921,Legend Oaks
1000,Glen Oaks Court,78702,30.2681135,-97.7110269883721,Rosewood
4530,East Ben White Boulevard,78741,30.215534,-97.731358,Parker Lane
4032,Vivas Lane,78735,30.2591215,-97.8463620729167,NA
3733,Bluestein Drive,78721,30.273693,-97.669868,MLK-183
9100,Burleson Road,78719,30.175494,-97.676066,NA
2416,East William Cannon Drive,78744,30.187407,-97.756321,Nuckols Crossing
1414,Alma Drive,78753,30.3808715,-97.6589697925,High Pointe
9200,Leaning Rock Circle,78730,30.380016,-97.825591,Long Canyon
6101,Greyfeather Drive,78759,30.392245,-97.773281,NA
8920,Ramirez Lane,78742,30.2457912,-97.6477541,NA
9400,Sprinkle Cutoff Road,78754,30.346897,-97.660776,Pioneer Crossing West
9401,Leaning Rock Circle,78730,30.382136,-97.829215,Long Canyon
2535,West Anderson Lane,78757,30.357211,-97.7339297522988,North Shoal Creek
6704,Valburn Drive,78731,30.371852,-97.7824679148038,North Cat Mountain
4230,Hidden Canyon Cove,78746,30.33335,-97.7861831360544,Balcones Park
2000,Brookhill Drive,78745,30.21394,-97.8009485237374,Garrison Park
6701,Woodhue Drive,78745,30.20192,-97.7975201280992,Timber Village
1712,Prairie Hen Cove,78758,30.395302,-97.6997550087487,Quail Hollow
8201,Bagby Drive,78724,30.2895495,-97.6339039987374,Loma Vista
96,Lynn Street,78702,30.2563885,-97.7236347077922,Holly
7219,West Rim Drive,78731,30.3642965,-97.7694175613208,Marbry's Ridge
1900,Joy Lane,78757,30.365036,-97.721723,Wooten
1722,Deerfield Drive,78741,30.23681,-97.7341354744136,Travis Heights
600,Lancelot Way,78735,30.2966145,-97.8467224559859,NA
6638,East Hill Drive,78731,30.348228,-97.752934,Highland Hills
NA,Sangeeta Way,78759-3504,30.4011695,-97.7152324939779,Quail Hollow
8000,Capital of Texas Highway,78750,30.379906,-97.777293,North Cat Mountain
5423,Petticoat Lane,78746,30.309784,-97.809337,Windsong Estates
10607,Linda Vista,78617,30.161467,-97.660718,Stoney Ridge
1910,Willow Creek Drive,78741,30.232529,-97.729548,East Riverside - Oltorf
7400,South Congress Avenue,78745,30.185463,-97.782335,Buckingham Ridge
9714,Slaughter Creek Drive,78748,30.173473,-97.819428,Westwood Heights
10317,Old Manchaca Road,78748,30.17047,-97.830362,Ford Oaks
9009,Hunters Trace,78758,30.3661195,-97.7111816173469,North Austin Civic Association
1903,Arthur Lane,78704,30.254551,-97.777609,Barton Hills
1411,West 10th Street,78703,30.277662,-97.7586127232051,Clarksville
1701,Stanley Avenue,78745,30.207141,-97.7990855803571,Garrison Park
715,West Slaughter Lane,78748,30.173525,-97.802554,Searight Village
24,Cousteau Lane,78746,30.3109495,-97.8365538083688,NA
1718,Bunche Road,78721,30.279252,-97.6774504179936,MLK-183
7607,Almond Cove,78750,30.381384,-97.789188,North Cat Mountain
629,Dalton Lane,78742,30.235248,-97.663559,NA
13101,Harold Green Road,78725,30.227657,-97.612128,Garden Valley Village
3813,Travis Country Circle,75735,30.257025,-97.8398630833333,NA
1505,Grayford Drive,78704,30.230796,-97.781063114448,South Lamar
7605,Pebble Brook Drive,78752,30.3287175,-97.682560521189,Coronado Hills
8513,Bell Mountain Drive,78730,30.375349,-97.8189492900208,Long Canyon
3025,Sunridge Drive,78741,30.2175945,-97.726178444416,East Riverside - Oltorf
8215,Burrell Drive,78757,30.357943,-97.7208626602564,Wooten
7300,Bain Road,78617,30.154675,-97.660442,Stoney Ridge
6204,Bumpstead Drive,78747,30.154048,-97.7480558532895,Thaxton Place
4703,Imperial Drive,78725,30.265238,-97.6261330753968,Imperial Valley
9703,Thaxton Road,78747,30.134604,-97.733894,Thaxton Place
6001,Hood Hollow,78731,30.348754,-97.7828790918367,Cat Mountain
3619,Peregrine Falcon Drive,78746,30.2699855,-97.8125111166334,NA
9603,Parkfield Drive,78758,30.3704325,-97.7043199189189,North Austin Civic Association
2624,Deerfoot Trail,78704,30.2611425,-97.7782049015152,Zilker
8309,Asmara Drive,78750,30.3901495,-97.8050777027311,Angel Pass
11109,Plains Trail,78758,30.383135,-97.693487,Gracywoods
7701,Escala Drive,78735,30.268378,-97.8615124181141,NA
807,Westbrook Drive,78746,30.2868235,-97.7941353653846,City View
1809,Cannonwood Lane,78745,30.2085925,-97.7999997449495,Garrison Park
1184,Harvey Street,78702,30.27489,-97.702419,Rosewood
7800,Wakefield Drive,78749,30.207742,-97.8415212764228,Woodstone Village
1110,South 1st Street,78745,30.2527995,-97.7539794427711,Bouldin
206,West 38th Street,78751,30.301679,-97.734713,Central Austin
2508,Campfield Parkway,78748,30.1920445,-97.8204024792038,Grand Oaks
9505,Johnny Morris Road,78724-1199,30.327897,-97.6246440180642,North Point
8176,North MoPac Expressway,78759,30.3685085,-97.744134126161,North Shoal Creek
909,Live Oak Ridge Road,78746,30.2960515,-97.8142793008125,Ledgeway
203,Cloudview Drive,78745,30.1897615,-97.7823466175699,Buckingham Ridge
2501,Anken Drive,00787,30.2294515,-97.7276465,East Riverside - Oltorf
248,North Lamar Boulevard,78703,30.2685390204082,-97.7555433877551,Seaholm
9200,Prince Charles Drive,78730,30.361123,-97.840123,River Place
1008,Reagan Terrace,78704,30.2443035,-97.7410554533046,Travis Heights
1706,City Park Road,78730,30.327732,-97.838231,Long Canyon
8332,FM 969,78724,30.2779528000404,-97.6392694202549,The Woodlands
5416,Buckman Mountain Road,78746,30.32477,-97.799914,NA
2222,West Rundberg Lane,78758,30.378291,-97.720031,North Austin Civic Association
6499,Adair Drive,78754,30.355816,-97.621974,Harris Branch
505,Honeycomb Ridge,78746,30.2832015,-97.8011827628866,Ridgewood Village
9707,FM 812,78719,30.15748,-97.6803743015431,NA
2110,Point Bluff Drive,78746,30.2742955,-97.8332849480198,NA
1803,Adriane Drive,78721,30.283804,-97.6910744845581,MLK
2404,Trafalgar Drive,78723,30.305634,-97.686012171875,Windsor Park
10511,River Plantation Drive,78747,30.1430065,-97.7805787025702,Crossings at Onion Creek
9400,Springdale Road,78754,30.338276,-97.6494328590226,Walnut Place
3401,East 7th Street,78702,30.2571015,-97.7038240965777,Govalle
3900,Laguna Vista Cove,78746,30.2995855,-97.7876272408759,Laguna Loma
11400,Platt Lane,78725,30.235238,-97.633614,Garden Valley Village
3004,Catalina Drive,78741,30.2225395,-97.7368264983922,Parker Lane
7905,Brightman Lane,78733,30.318194,-97.84572,NA
7108,Twisted Oaks Drive,78745,30.2033005,-97.8128228736842,Whispering Oaks
2461,Pearce Road,78730,30.3309442305975,-97.8310186261948,NA
4412,Silent Trail,78746,30.321437,-97.784446,Balcones Park
916,East 32nd Street,78705,30.290972,-97.726637,Hancock
6,Cicero Lane,78746,30.3161735,-97.8327783393928,NA
4307,Twisted Tree Drive,78735,30.251652,-97.8338259794011,NA
792,Oakdale Drive,78745,30.2185755,-97.8180805,Sunburst
1404,Avebury Circle,78753,30.353668,-97.6766823637967,Cameron Industrial
2401,Riverside Farms Road,78741,30.2242365,-97.7170339716613,Pleasant Valley
10900-B,Stonelake Boulevard,78759,30.40073735,-97.7346276719755,NA
1600,Royal Crest Drive,78741,30.239541,-97.7309882007576,Lakeshore
5300,Blue Bluff Road,78724,30.268896,-97.618029,Imperial Valley
9811,Decker Lake Road,78724,30.2841475960265,-97.6166492384106,Imperial Valley
807,Las Cimas Parkway,78746,30.2886115,-97.8294932022251,NA
2309,Spring Creek Drive,78704,30.258601,-97.7754436293104,Zilker
6808,Wentworth Drive,78724,30.2950505,-97.6304565036388,Loma Vista
333,King Arthur Court,78746,30.298066,-97.8420775334169,NA
1902,Ann Arbor Avenue,78704,30.2536015,-97.7755498007246,Zilker
4600,Chartwell Drive,78723,30.292258,-97.6881631749427,MLK
6837,Broad Brook Drive,78747,30.154828,-97.7379830771343,Thaxton Place
113,Hergotz Lane,78742,30.243847,-97.688992,Johnston Terrace
6571,Ed Bluestein Boulevard,78724,30.30557,-97.659914,Las Cimas
400,East Monroe Street,78704,30.2471635,-97.7472709415446,Travis Heights
7352,Spicewood Springs Road,78759,30.408839,-97.791431,NA
3201,Bee Caves Road,78746,30.272809,-97.800178,Timberline Ridge
2700,Bartons Bluff Lane,78746,30.255595,-97.7940068955696,NA
1152,Mason Avenue,78721,30.276254,-97.6841668699405,MLK-183
8308,Colony Loop Drive,78724,30.2959675,-97.6275606484375,Loma Vista
2706,Greenlee Drive,78703,30.301073,-97.7666849607143,Tarrytown
907,East Monroe Street,78704,30.244735,-97.7422745,Travis Heights
1525,Weyford Drive,78757,30.3606025,-97.7207029776397,Wooten
8009,Sassman Road,78747,30.138725,-97.723147,NA
1304,Rockcliff Road,78746,30.3335315,-97.7833587299477,Cat Mountain
2015,Mistywood Drive,78746,30.2632785,-97.8078685326283,NA
10805,River Plantation Drive,78747,30.138903,-97.7816944063092,Crossings at Onion Creek
2707,Mountain Laurel Lane,78703,30.3075955,-97.7645958165446,Tarrytown
5506,Fernview Road,78745,30.2189665,-97.8032856741071,Flournoy Acres
4609,Rocking Chair Road,78744,30.197121,-97.742399,Franklin Park
7108,Kenosha Pass,78749,30.229599,-97.8708275504202,Legend Oaks
3005 1/2,I 35 Frontage Road,78741,30.226643,-97.744701,St. Edwards
6212,Thurgood Avenue,78721,30.262448,-97.6782989140101,Johnston Terrace
10385,Old Lockhart Highway,78747,30.135302,-97.750891,Perkins Valley
7101,Woodhue Drive,78745,30.198537,-97.8027461210526,Timber Village
1859,Westlake Drive,78746,30.3014335,-97.7931208480392,Bee Cliffs
1636,East Anderson Lane,78754,30.331795,-97.682734,Berkley Square - Headway
170,Thompson Lane,78742,30.2442899106353,-97.6803037161824,Johnston Terrace
5608,Fence Row,78744,30.196531,-97.7311006275453,Southeast Austin
9606,Kangaroo Lane,78748,30.1864805,-97.8440717717391,Palomino Park
5916,Abby Ann Lane,78747,30.138558,-97.7669110923574,NA
5501,Honey Dew Terrace,78749,30.231829,-97.8513040772947,Sunset
1370,Patterson Road,78733,30.303882,-97.878565,NA
9004,Nuckols Crossing Road,78744,30.1573224426012,-97.7638145533557,Perkins Valley
9300,Bordley Court,78748,30.1807255,-97.8242464918831,Castlewood Forest
6703,Pixie Cove,78746,30.3384055,-97.815216,NA
8113,I 35 Frontage Road,78745:78748,30.1747325,-97.7799070119048,The Waters at Bluff Springs
11704,Garden Grove Drive,78725,30.2248655,-97.63043571875,Garden Valley Village
5902,Spartan Cove,78759,30.3993205,-97.7682254284806,NA
8008,South Congress Avenue,78745,30.1791215,-97.7849312227074,South Bend
1908,San Antonio Street,78705,30.282898,-97.7435087752238,The Drag
2526,Pearce Road,78730,30.331744,-97.8269451513762,NA
2400,Taos Boulevard,78745,30.232123,-97.7952861253578,Westgate
8015,Briarwood Lane,78757,30.3625865,-97.7350524807692,North Shoal Creek
2803,Pickwick Lane,78746,30.274631,-97.7837109632554,Timberline Ridge
4500,South 1st Street,78745:78748,30.2198915,-97.7740000190678,West Congress
7304,Spicewood Springs Road,78759,30.406811,-97.789839,NA
3320,Farm-to-Market Road 973,78617,30.201503,-97.639958,Hornsby Glen
8105,Shoal Creek Boulevard,78757,30.364849,-97.738653103229,North Shoal Creek
600,East 53rd Street,78751,30.315944,-97.7168804774389,North Loop
7014,Quill Leaf Cove,78750,30.375914,-97.7969655657895,Angel Pass
3308,Gentry Drive,78746,30.2765175,-97.7930504903846,Timberline Ridge
477,Cortona Drive,78746,30.287603,-97.807107,Ledgeway
9810,Old Lockhart Highway,78747,30.147184,-97.767495,Perkins Valley
9117,Frock Court,78748,30.1799645,-97.8179827164315,Dittmar Crossing
829,Airport Boulevard,78752,30.2568695,-97.6926617488101,Johnston Terrace
100,Swiftcurrent Trail,78746,30.291618,-97.815023,Ledgeway
5627,Burleson Road,78744,30.2086428461538,-97.7232879230769,McKinney
6306,Vioitha Drive,78723,30.309312,-97.6730120332412,University Hills
1220,Strickland Drive,78748,30.182896,-97.8081919511962,Dittmar Crossing
5505,Blue Goose Road,78754,30.349871,-97.63117,Harris Branch
10820,Platt Lane,78725,30.2335770116578,-97.638342932068,Garden Valley Village
2000,Nogales Trail,78744,30.182521,-97.7675649884935,Meadows Lake
903,Clearwater,78753,30.3836155,-97.6662501917765,North Oaks
3820,Avenue F,78751,30.301061,-97.7323524722222,Hyde Park
6300,Chambly Cove,78730,30.37918,-97.830807,Long Canyon
1000,East Yager Lane,78753,30.392508,-97.660329,Copperfield
5715,Standing Rock Drive,78730,30.371678,-97.825075,Long Canyon
9675,McKenzie Road,78719,30.1420078448928,-97.6923408500346,NA
6500,North Lamar Boulevard,78757,30.3328629,-97.7227168958727,Violet Crown Heights
3401,Grooms Street,78705,30.297734,-97.733199,Central Austin
4710,Via Media,78746,30.314639,-97.793485,Island Way
8921,Nuckols Crossing Road,78747,30.1562954,-97.7622539,Perkins Valley
5844,Westslope Drive,78731,30.3457455,-97.7840320486111,Cat Mountain
950,Live Oak Circle,78746,30.2966675,-97.8116727708333,Ledgeway
512,Dalton Lane,78742,30.237108,-97.664106,NA
10600,Bilbrook Place,78748,30.159026,-97.8105405510267,Westwood Heights
1758,Camp Craft Road,78746,30.27299,-97.821459,NA
1911,Greenbrook Parkway,78723,30.3051105,-97.6926874183333,Windsor Park
7700,Huddleston Lane,78745,30.1886715,-97.7990039487179,Elm Wood Estates
6415,Five Acre Wood,78735,30.276603,-97.8455134987322,NA
6436,Williams Ridge Way,78731,30.3554885,-97.775261436877,Cat Mountain
10801,Old Manchaca Road,78748,30.1625865,-97.82877156875,Saddlewood Estates
6300,Waynesburg Cove,78723,30.3026935,-97.6660086635514,Pecan Springs Springdale
8504,Lava Hill Road,78744,30.155812,-97.699859,NA
9526,US Highway 290,78754,30.331172,-97.628905,Chimney Hills
4310,Vaughan Street,78723,30.29489,-97.697824,Mueller
6825,East US 290 Frontage Road,78753:78754,30.320588,-97.6880148180199,Coronado Hills
418,East Anderson Lane,78753:78754,30.3423055,-97.7019864065657,Georgian Acres
5340,Cameron Road,78754,30.3119675,-97.7068510416667,Ridge Top
7201,Lookout Bluff Terrace,78735,30.24303,-97.874034,West Oak Hill
8740,Research Boulevard,78757,30.36498225,-97.7197394938274,Wooten
1112,Desirable Drive,78721,30.2633955,-97.6861466886792,Johnston Terrace
NA,East 12th Street,78701,30.27262395,-97.7376506434152,Medical District
2104,Malvern Hill Drive,78745,30.1958515,-97.8123557777778,Southwest Oaks
7,Muir Lane,78746,30.3070515,-97.8375665843023,NA
4966,West US Highway 290,78735,30.235151,-97.816562,Sunset Oaks
6210,5900 Southwest Parkway,78746,30.25238,-97.852982,NA
7431,Onion Creek Drive,78744,30.1690905,-97.750473239636,Silverstone
10208,Slaughter Creek Drive,78748,30.1642515,-97.8225161024963,Saddlewood Estates
4406,Falling Brook Cove,78746,30.319762,-97.7849664724138,Balcones Park
600,Sheraton Avenue,78745,30.212752,-97.7619624114173,East Congress
8208,Canoga Avenue,78724,30.2851565,-97.6358615534159,Loma Vista
2600,Farm-to-Market Road 973,78725,30.237608,-97.624707,Garden Valley Village
12593,Harold Green Road,78725,30.2280910139116,-97.61710285054,Garden Valley Village
7708,Clydesdale Drive,78745,30.203298,-97.8312906480944,Southampton Hills
5595,FM 973,78617,30.172404250676,-97.6523641399351,Stoney Ridge
6009,Open Range Trail,78749,30.221276,-97.8677566432584,Legend Oaks
8305,Cross Park Drive,78753:78754,30.3362255,-97.6695182495438,Parker Acres
8005,High Hollow Cove,78750,30.393542,-97.805801,Angel Pass
2934,Higgins Street,78722,30.28283,-97.7064684931677,Chestnut
11916,Sky West Drive,78758,30.3972745,-97.692879125,Gracywoods
912,Dalton Lane,78742,30.2316735,-97.6702849363782,NA
2801,Presidential Boulevard,78719,30.209864,-97.664559,NA
11408,Platt Lane,78725,30.238045,-97.631469,Garden Valley Village
5926,Standing Rock Drive,78730,30.376172,-97.829456,Long Canyon
7721,Journeyville Drive,78735,30.247605,-97.8777651538462,NA
2918,Guadalupe Street,78705,30.296223,-97.742618,Central Austin
5602,Penick Drive,78741,30.2291505,-97.7107679074074,Pleasant Valley
1405,Fairwood Road,78722,30.3007215,-97.711286620283,Delwood
4703,Valley Oak Drive,78731,30.3269395,-97.7581068454158,Balcones Park
7500,Loasa Cove,78735,30.275384,-97.855887,NA
7802,Wakefield Drive,78749,30.2075655,-97.8415950753846,Woodstone Village
11216,Dessau Road,78754,30.3713260693252,-97.6664207652507,Woodcliff
7932,West Rim Drive,78731,30.373023,-97.7675573333333,Marbry's Ridge
1809,Woodland Avenue,78741,30.2373725,-97.731758740891,East Riverside - Oltorf
9515,Hergotz Lane,78742,30.2370485,-97.6541785191077,NA
5609,South Congress Avenue,78745,30.20398,-97.774817810319,Sweetbriar
5907,Leisure Run Road,78745,30.2054245,-97.7841228347107,Sweetbriar
1520,Ben Crenshaw Way,78746,30.287591,-97.8445400794515,NA
5510,Vine Hill Drive,78744,30.173302,-97.746694,Nuckols Crossing
5510,Ferret Path,78744,30.191103,-97.7434385115385,Franklin Park
4820,City Park Road,78730,30.368909,-97.836444,Long Canyon
1406,Kirkwood Road,78722,30.295288,-97.7148080039683,Delwood
2900,Castro Street,78702,30.262485,-97.7070904243783,Govalle
1504,Holstein Drive,78758,30.389975,-97.6985445756881,Quail Hollow
5105,Summerset Trail,78749,30.2293785,-97.8469084915455,Sunset
1278,Capital of Texas Highway,78746,30.279978701425,-97.821655663555,Ledgeway
9520,Brown Lane,78754,30.35167,-97.670211,Cameron Industrial
1621,Rosewood Avenue,78702,30.269244,-97.721133,Rosewood
13,Beecher Lane,78746,30.3196075,-97.8370825957447,NA
706,Kinney Avenue,78704,30.2599035,-97.7636581285714,Zilker
1305,Wilshire Boulevard,78722,30.296813,-97.7146949240061,Delwood
8301,I 35 Frontage Road,78744,30.172862,-97.781524,The Waters at Bluff Springs
2887,NA,78617,30.2074886206897,-97.6474743448276,Hornsby Glen
3311,Bryker Drive,78703,30.306512,-97.7529945103896,Bryker Woods
5407,Tallow Tree Drive,78744,30.197231,-97.7536795972028,Franklin Park
307,Lightsey Road,78704,30.230492,-97.7626943788122,Dawson
615,Upson Street,78703,30.279391,-97.7697351585093,Bluffington
301,Tillery Street,78702,30.253757,-97.707237,Govalle
5516,Hudson Hollow,78759,30.394125,-97.7658033160377,NA
1600,Westlake Drive,78746,30.2992935,-97.7944351375232,Lakeview Gardens
8413,Romney Road,78748,30.1782935,-97.7971808743166,Buckingham Estates
4421,Mirador Drive,78735,30.264616,-97.865864,NA
9944,Criswell,78754,30.3522061201512,-97.6598300757424,Pioneer Hill Reserve
1811,Capital of Texas Highway,78746,30.270423,-97.817237,Ledgeway
5703,Spring Meadow Road,78744,30.1945845,-97.7313942427885,Southeast Austin
4412,Switch Willo,78727,30.414465,-97.7306930786662,Angus Valley
7316,Turnbuoy Drive,78730,30.3448185,-97.8222996946069,NA
2100,Westlake Drive,78746,30.303241,-97.788306,Bee Cliffs
3670,Lost Creek Boulevard,78735,30.277992,-97.866173,NA
4720,Winnebago Lane,78744,30.2085926,-97.7339132430559,McKinney
5066,Emma Browning Avenue,78719,30.1804076393516,-97.6665280296212,NA
5410,Roosevelt Avenue,78756,30.325753,-97.7339053333333,Broadacres
1006,South Center Street,78704,30.232268,-97.7730930661287,Galindo
1110,Somerset Avenue,78753,30.3657395,-97.6732138977273,Windsor Hills
1044,Camino La Costa,78752,30.3250825,-97.6997524068452,St. Johns
615,East 48th Street,78751,30.3092215,-97.7200970384615,North Loop
2715,Manor Road,78722,30.2848325,-97.7128564491525,Chestnut
8921,Nuckols Crossing Road,78747,30.1562954,-97.7622539,Perkins Valley
6504,Guildford Cove,78730,30.383254,-97.828322,Long Canyon
2204,Delcrest Drive,78704,30.2457335,-97.7746237109375,Zilker
NA,Samsung Plant,78754,30.375801,-97.6398356192794,Parmer Park
614,Capital of Texas Highway,78746,30.2944995,-97.829257140625,Ledgeway
1920,Gaston Place Drive,78723,30.31355,-97.689615,Windsor Park
3518,East 7th Street,78702,30.2568505,-97.7023275,Govalle
573,VFW Road,78753,30.3920092272727,-97.6692546363636,The Springs of Walnut Creek
3203,Lookout Lane,78746,30.328342,-97.804818,NA
7107,Ritchie Drive,TX 78724,30.3028605,-97.6380155306174,North Point
9601,Interstate 35 Frontage Road,78745:78748,30.1608405,-97.787714826087,South Bend
5805,City Park Road,78730,30.363351,-97.807775,Angel Pass
4901,Wing Road,78749,30.227803,-97.8440156883062,Sunset
1918,East Side Drive,78704,30.2424745,-97.746760734127,Travis Heights
10185,Old San Antonio Road,78748,30.1533258050632,-97.7947208744938,Ashbrook
9037,Capital of Texas Highway,78759,30.3883233921896,-97.7552612937515,North Cat Mountain
906,Crystal Creek Drive,78746,30.306046,-97.8652854318182,Austin Lake Hills
3405,Burliegh Cove,78745,30.19907,-97.8357620710784,Southampton Hills
3106,Pinecrest Drive,78757,30.352078,-97.7448854807781,Allandale
1011,West Anderson Lane,78757,30.3485305,-97.7161022413295,Crestview
1210,Larkwood Drive,78723,30.31413,-97.7015664730216,Windsor Park
5301,Loyola Lane,78723,30.303942,-97.662827,University Hills
1400,Southport Drive,78704,30.2330405,-97.7777450875,South Lamar
746,Dalton Lane,78742,30.2340226202532,-97.6665324050633,NA
7810,Burleson Road,78744,30.18922,-97.694936,Martinshore
9009,Camelback Drive,78733,30.3330575,-97.8561327352941,Austin Lake Hills
8804,Stambourne Street,78747,30.1491605,-97.7395135880282,Thaxton Place
8305,Cross Park Drive,78753:78754,30.3362255,-97.6695182495438,Parker Acres
8029,Doe Meadow Drive,78749,30.21702,-97.8675152634409,Legend Oaks
710,Barton Creek Boulevard,78746,30.301107,-97.846046,NA
10908,Bluff Bend Drive,78753,30.371209,-97.6753896052632,Windsor Hills
7208,Spicewood Springs Road,78759,30.405645,-97.788768,NA
1604,Wheless Lane,78723,30.31962,-97.6907695661395,Windsor Park
11709,Pearce Lane,78617,30.174567,-97.63594,Meadows at Berdoll
7600,Rialto Boulevard,78735,30.2540525,-97.8725938864143,NA
1420,Gracy Drive,78758,30.3907805,-97.6950395,Gracywoods
3001,Hemphill Park,78705,30.295632,-97.740064,Central Austin
12010,Snow Goose Road,78758,30.400625,-97.69809499,Village at Walnut Creek
11513,June Drive,78753,30.374853,-97.6617157083333,Four Seasons
4915,Mount Bonnell Road,78731,30.334004,-97.775819,Balcones Park
6200,Blue Bluff Road,78724,30.280072,-97.61152,Imperial Valley
4802,East Oltorf Street,78741,30.22403,-97.722421,East Riverside - Oltorf
7109,Carwill Drive,78724,30.3037305,-97.642871423913,Colony Park
4707,Leslie Avenue,78721,30.2817165,-97.6836176045971,MLK
4809,South Congress Avenue,78745,30.212819,-97.769756,West Congress
4444,Foster Ranch Road,78735,30.2508317109375,-97.8479930546875,NA
5104,Duval Street,78751,30.314728,-97.7198594245524,North Loop
4404,Mirador Drive,78735,30.26586,-97.866961,NA
1602,West 45th Street,78756,30.3165495,-97.7436966084269,Rosedale
